STARLINK-37285          
1 68626U 26073AA  26183.54766543  .00018178  00000+0  56417-3 0  9996
2 68626  97.2850  23.5456 0001337  84.9416 275.1979 15.33436816 13545
STP-S29A OBJECT A       
1 68627U 26074A   26183.54662377  .00010128  00000+0  41530-3 0  9995
2 68627  60.0184 119.4637 0030352  30.8102 329.4752 15.24438156 13126
MISR-C-1                
1 68628U 26074B   26183.53947275  .00010284  00000+0  42071-3 0  9992
2 68628  60.0234 119.4837 0028830  32.0189 328.2635 15.24542750 13114
RAWHIDE-1               
1 68629U 26074C   26183.77578740  .00000695  00000+0  39436-4 0  9993
2 68629  60.0199 118.3290 0032164  35.4129 324.9078 15.24593967 13167
STPSAT-7                
1 68630U 26074D   26183.77329356  .00007281  00000+0  29897-3 0  9999
2 68630  60.0214 118.3206 0030265  38.0257 322.2952 15.24783126 13154
STP-S29A OBJECT E       
1 68631U 26074E   26183.77661595  .00005471  00000+0  22836-3 0  9999
2 68631  60.0203 118.3303 0030774  38.2793 322.0464 15.24661179 13163
RAWHIDE-2               
1 68632U 26074F   26183.53285845  .00003360  00000+0  14204-3 0  9999
2 68632  60.0313 118.9486 0031043  40.3323 320.0052 15.25328261 13127
MISR-C-2                
1 68633U 26074G   26183.50799167  .00013015  00000+0  50068-3 0  9990
2 68633  60.0211 118.7222 0031147  44.0877 316.2679 15.26321659 13128
AGGIESAT6 (AGS6)        
1 68634U 26074H   26183.55378258  .00011426  00000+0  43581-3 0  9996
2 68634  60.0210 118.3584 0032064  47.0597 313.3167 15.26693369 13148
CANVAS                  
1 68635U 26074J   26183.16462682  .00015865  00000+0  62136-3 0  9997
2 68635  60.0230 120.5044 0032364  36.9346 323.3955 15.25541056 13071
QIANFAN-109             
1 68636U 26075A   26183.77044299  .00000102  00000+0  13907-3 0  9996
2 68636  88.9907 319.4195 0001894 114.8897 245.2452 13.51012571 11893
QIANFAN-110             
1 68637U 26075B   26183.77865038  .00000113  00000+0  15619-3 0  9993
2 68637  88.9907 319.4402 0002001  99.5889 260.5488 13.51013830 11894
QIANFAN-111             
1 68638U 26075C   26183.76635595  .00000030  00000+0  28316-4 0  9993
2 68638  88.9906 319.4010 0002009  98.2563 261.8816 13.51020559 11910
QIANFAN-112             
1 68639U 26075D   26183.72909869  .00000099  00000+0  13400-3 0  9990
2 68639  88.9905 319.4136 0001678 112.1250 248.0079 13.51025729 11900
QIANFAN-113             
1 68640U 26075E   26183.77450315  .00000101  00000+0  13817-3 0  9990
2 68640  88.9911 319.4035 0001886 100.9998 259.1365 13.51016642 11918
QIANFAN-114             
1 68641U 26075F   26183.78268451  .00000105  00000+0  14387-3 0  9997
2 68641  88.9906 319.4211 0002001 100.4079 259.7297 13.51015398 11900
QIANFAN-115             
1 68642U 26075G   26183.73737463  .00000091  00000+0  12174-3 0  9993
2 68642  88.9906 319.4329 0002032 105.1255 255.0121 13.51020633 11894
QIANFAN-116             
1 68643U 26075H   26183.72502602  .00000101  00000+0  13845-3 0  9996
2 68643  88.9899 319.3931 0001688 106.3516 253.7821 13.51023896 11901
QIANFAN-117             
1 68644U 26075J   26183.71271663  .00000112  00000+0  15527-3 0  9997
2 68644  88.9904 319.4108 0001900 107.2697 252.8662 13.51022684 11900
QIANFAN-118             
1 68645U 26075K   26183.59747564  .00000106  00000+0  14527-3 0  9994
2 68645  88.9908 319.4313 0001996  96.8985 263.2393 13.51021197 11883
QIANFAN-119             
1 68646U 26075L   26183.64690502  .00000092  00000+0  12338-3 0  9992
2 68646  88.9909 319.4218 0001932 110.8014 249.3344 13.51018803 11891
QIANFAN-120             
1 68647U 26075M   26183.65936515  .00000105  00000+0  14351-3 0  9993
2 68647  88.9910 319.4059 0002056 113.5383 246.5985 13.51019140 11901
QIANFAN-121             
1 68648U 26075N   26183.60978945  .00000023  00000+0  17132-4 0  9992
2 68648  88.9907 319.4155 0002057  99.3405 260.7979 13.51011227 11899
QIANFAN-122             
1 68649U 26075P   26183.60171460  .00000099  00000+0  13533-3 0  9993
2 68649  88.9907 319.4143 0001865 109.3327 250.8026 13.51015015 11889
QIANFAN-123             
1 68650U 26075Q   26183.64288591  .00000100  00000+0  13623-3 0  9996
2 68650  88.9904 319.3997 0001824 116.1489 243.9850 13.51013383 11877
QIANFAN-124             
1 68651U 26075R   26183.59348699  .00000108  00000+0  14905-3 0  9999
2 68651  88.9906 319.4141 0001827 111.5206 248.6140 13.51014480 11896
QIANFAN-125             
1 68652U 26075S   26183.60568397  .00000098  00000+0  13288-3 0  9992
2 68652  88.9906 319.4149 0002000  98.2191 261.9188 13.51011513 11897
QIANFAN-126             
1 68653U 26075T   26183.61403721  .00000086  00000+0  11491-3 0  9994
2 68653  88.9910 319.3803 0001843 116.0806 244.0535 13.51016665 11919
HULIANWANG DIGUI-164    
1 68656U 26076A   26183.76517468  .00000026  00000+0  26403-4 0  9992
2 68656  86.4950  38.6188 0002131  80.6805 279.4570 13.24414994 11437
HULIANWANG DIGUI-165    
1 68657U 26076B   26183.68209315 -.00000003  00000+0 -40340-4 0  9996
2 68657  86.4970  38.6606 0002138  89.1231 271.0148 13.24414076 11428
