OBJECT_NAME,OBJECT_ID,EPOCH,MEAN_MOTION,ECCENTRICITY,INCLINATION,RA_OF_ASC_NODE,ARG_OF_PERICENTER,MEAN_ANOMALY,EPHEMERIS_TYPE,CLASSIFICATION_TYPE,NORAD_CAT_ID,ELEMENT_SET_NO,REV_AT_EPOCH,BSTAR,MEAN_MOTION_DOT,MEAN_MOTION_DDOT
STARLINK-37285,2026-073AA,2026-07-02T13:08:38.293152,15.33436816,.0001337,97.2850,23.5456,84.9416,275.1979,0,U,68626,999,1354,.56417E-3,.18178E-3,0
STP-S29A OBJECT A,2026-074A,2026-07-02T13:07:08.293728,15.24438156,.0030352,60.0184,119.4637,30.8102,329.4752,0,U,68627,999,1312,.4153E-3,.10128E-3,0
MISR-C-1,2026-074B,2026-07-02T12:56:50.445600,15.24542750,.002883,60.0234,119.4837,32.0189,328.2635,0,U,68628,999,1311,.42071E-3,.10284E-3,0
RAWHIDE-1,2026-074C,2026-07-02T18:37:08.031360,15.24593967,.0032164,60.0199,118.3290,35.4129,324.9078,0,U,68629,999,1316,.39436E-4,.695E-5,0
STPSAT-7,2026-074D,2026-07-02T18:33:32.563584,15.24783126,.0030265,60.0214,118.3206,38.0257,322.2952,0,U,68630,999,1315,.29897E-3,.7281E-4,0
STP-S29A OBJECT E,2026-074E,2026-07-02T18:38:19.618080,15.24661179,.0030774,60.0203,118.3303,38.2793,322.0464,0,U,68631,999,1316,.22836E-3,.5471E-4,0
RAWHIDE-2,2026-074F,2026-07-02T12:47:18.970080,15.25328261,.0031043,60.0313,118.9486,40.3323,320.0052,0,U,68632,999,1312,.14204E-3,.336E-4,0
MISR-C-2,2026-074G,2026-07-02T12:11:30.480288,15.26321659,.0031147,60.0211,118.7222,44.0877,316.2679,0,U,68633,999,1312,.50068E-3,.13015E-3,0
AGGIESAT6 (AGS6),2026-074H,2026-07-02T13:17:26.814912,15.26693369,.0032064,60.0210,118.3584,47.0597,313.3167,0,U,68634,999,1314,.43581E-3,.11426E-3,0
CANVAS,2026-074J,2026-07-02T03:57:03.757248,15.25541056,.00323647,60.0230,120.5044,36.9346,323.3955,0,U,68635,999,1307,.62136117E-3,.15865E-3,0
QIANFAN-109,2026-075A,2026-07-02T18:29:26.274336,13.51012571,.0001894,88.9907,319.4195,114.8897,245.2452,0,U,68636,999,1189,.13907E-3,.102E-5,0
QIANFAN-110,2026-075B,2026-07-02T18:41:15.392832,13.51013830,.0002001,88.9907,319.4402,99.5889,260.5488,0,U,68637,999,1189,.15619E-3,.113E-5,0
QIANFAN-111,2026-075C,2026-07-02T18:23:33.154080,13.51020559,.0002009,88.9906,319.4010,98.2563,261.8816,0,U,68638,999,1191,.28316E-4,.3E-6,0
QIANFAN-112,2026-075D,2026-07-02T17:29:54.126816,13.51025729,.0001678,88.9905,319.4136,112.1250,248.0079,0,U,68639,999,1190,.134E-3,.99E-6,0
QIANFAN-113,2026-075E,2026-07-02T18:35:17.072160,13.51016642,.0001886,88.9911,319.4035,100.9998,259.1365,0,U,68640,999,1191,.13817E-3,.101E-5,0
QIANFAN-114,2026-075F,2026-07-02T18:47:03.941664,13.51015398,.0002001,88.9906,319.4211,100.4079,259.7297,0,U,68641,999,1190,.14387E-3,.105E-5,0
QIANFAN-115,2026-075G,2026-07-02T17:41:49.168032,13.51020633,.0002032,88.9906,319.4329,105.1255,255.0121,0,U,68642,999,1189,.12174E-3,.91E-6,0
QIANFAN-116,2026-075H,2026-07-02T17:24:02.248128,13.51023896,.0001688,88.9899,319.3931,106.3516,253.7821,0,U,68643,999,1190,.13845E-3,.101E-5,0
QIANFAN-117,2026-075J,2026-07-02T17:06:18.716832,13.51022684,.00019,88.9904,319.4108,107.2697,252.8662,0,U,68644,999,1190,.15527E-3,.112E-5,0
QIANFAN-118,2026-075K,2026-07-02T14:20:21.895296,13.51021197,.00019969,88.9908,319.4313,96.8985,263.2393,0,U,68645,999,1188,.14527314E-3,.106E-5,0
QIANFAN-119,2026-075L,2026-07-02T15:31:32.593728,13.51018803,.00019322,88.9909,319.4218,110.8014,249.3344,0,U,68646,999,1189,.1233842E-3,.92E-6,0
QIANFAN-120,2026-075M,2026-07-02T15:49:29.148960,13.51019140,.00020561,88.9910,319.4059,113.5383,246.5985,0,U,68647,999,1190,.14350514E-3,.105E-5,0
QIANFAN-121,2026-075N,2026-07-02T14:38:05.808480,13.51011227,.00020579,88.9907,319.4155,99.3405,260.7979,0,U,68648,999,1189,.17131639E-4,.23E-6,0
QIANFAN-122,2026-075P,2026-07-02T14:26:28.141440,13.51015015,.00018655,88.9907,319.4143,109.3327,250.8026,0,U,68649,999,1188,.13533353E-3,.99E-6,0
QIANFAN-123,2026-075Q,2026-07-02T15:25:45.342624,13.51013383,.00018249,88.9904,319.3997,116.1489,243.9850,0,U,68650,999,1187,.1362298E-3,.1E-5,0
QIANFAN-124,2026-075R,2026-07-02T14:14:37.275936,13.51014480,.00018272,88.9906,319.4141,111.5206,248.6140,0,U,68651,999,1189,.14904761E-3,.108E-5,0
QIANFAN-125,2026-075S,2026-07-02T14:32:11.095008,13.51011513,.0002,88.9906,319.4149,98.2191,261.9188,0,U,68652,999,1189,.13288029E-3,.98E-6,0
QIANFAN-126,2026-075T,2026-07-02T14:44:12.814944,13.51016665,.0001843,88.9910,319.3803,116.0806,244.0535,0,U,68653,999,1191,.11491444E-3,.86E-6,0
HULIANWANG DIGUI-164,2026-076A,2026-07-02T18:21:51.092352,13.24414994,.0002131,86.4950,38.6188,80.6805,279.4570,0,U,68656,999,1143,.26403E-4,.26E-6,0
HULIANWANG DIGUI-165,2026-076B,2026-07-02T16:22:12.848160,13.24414076,.0002138,86.4970,38.6606,89.1231,271.0148,0,U,68657,999,1142,-.4034E-4,-.3E-7,0
